LEMUR-1                 
1 40044U 14033AL  26157.17768813  .00003039  00000+0  35312-3 0  9996
2 40044  97.7870 307.2289 0049662 113.7715 246.8719 14.85202000643838
LEMUR-2-GREENBERG       
1 42837U 17042N   26157.43466286  .00022936  00000+0  76603-3 0  9994
2 42837  97.3820 338.1122 0009553  50.7747 309.4341 15.30993300486743
LEMUR-2-ANDIS           
1 42838U 17042P   26157.22739881  .00031335  00000+0  93902-3 0  9990
2 42838  97.3682 338.0531 0009098  51.0897 309.1156 15.34401972486774
LEMUR-2-MONSON          
1 42839U 17042Q   26157.22377437  .00021056  00000+0  77823-3 0  9999
2 42839  97.4081 337.8910 0007238  43.5067 316.6742 15.27719129486497
LEMUR-2-FURIAUS         
1 42840U 17042R   26157.48621575  .00022921  00000+0  79208-3 0  9995
2 42840  97.3773 336.1433 0008580 101.7128 258.5076 15.29895628486578
LEMUR-2-PETERG          
1 42841U 17042S   26157.46574085  .00031711  00000+0  97985-3 0  9996
2 42841  97.3995 342.4827 0004084  35.9414 324.2102 15.33458786486793
LEMUR-2-DEMBITZ         
1 42842U 17042T   26157.50649395  .00021386  00000+0  73780-3 0  9993
2 42842  97.3828 339.1784 0007590  63.3027 296.8990 15.29971671486713
LEMUR-2-ZACHARY         
1 42845U 17042W   26157.27823502  .00064723  00000+0  11766-2 0  9991
2 42845  97.3613 348.6900 0003628  70.4235 289.7408 15.49313355487516
LEMUR-2-AMANDA-SVANTE   
1 48269U 21034B   26157.20282005  .00045111  00000+0  13832-2 0  9999
2 48269  97.5756 235.2043 0000962 256.4279 103.6856 15.33631703279370
LEMUR-2-SPECIAL-K       
1 48273U 21034F   26157.20130287  .00181204  00000+0  20818-2 0  9994
2 48273  97.5648 243.2905 0002900 237.9387 122.1588 15.61432707279977
LEMUR-2-EMBRIONOVIS     
1 56970U 23084AQ  26157.65780295  .00017097  00000+0  46939-3 0  9994
2 56970  97.6284 301.4560 0008485   0.8273 359.2983 15.37286055166069
LEMUR-2-DEVERILL-M-T    
1 57391U 23100F   26157.31542741  .00037795  00000+0  97030-3 0  9991
2 57391  99.4476 192.9395 0007309  83.6251 276.5820 15.39209274159577
LEMUR-2-BASS            
1 58259U 23174D   26157.50927294  .00022393  00000+0  51335-3 0  9993
2 58259  97.3842 242.0758 0006865 197.3775 162.7239 15.42738531143711
LEMUR-2-JK0903EM1407    
1 58336U 23174CJ  26157.50127039  .00033010  00000+0  56572-3 0  9994
2 58336  97.3908 247.6769 0005904 148.9054 211.2548 15.51130968144071
LEMUR-2-MJR092620       
1 58340U 23174CN  26157.46996834  .00025426  00000+0  54936-3 0  9995
2 58340  97.3972 247.3058 0006885 149.0489 211.1166 15.44477692143993
LEMUR-2-NIMBUS2000      
1 58899U 24022A   26157.09634919  .00023061  00000+0  58512-3 0  9996
2 58899  97.4118   6.9609 0009820 150.3226 209.8578 15.39635356130569
LEMUR-2-VALHALLA        
1 58900U 24022B   26157.54533960  .00021046  00000+0  53926-3 0  9998
2 58900  97.4118   7.4115 0010462 145.2046 214.9886 15.39347702130639
LEMUR-2-OBA-NI-JESU     
1 58902U 24022D   26157.14428135  .01069287  62895-3  15921-2 0  9999
2 58902  97.3752  21.4551 0004707 186.4217 173.7004 16.04973170131559
LEMUR-2-CAEL            
1 58903U 24022E   26157.36922106  .00023138  00000+0  56861-3 0  9990
2 58903  97.4101   8.1505 0009064 129.7042 230.5005 15.40617282130670
LEMUR-2-JOHNNYTRUONG    
1 59146U 24043BA  26156.66841526  .00039077  00000+0  49113-3 0  9992
2 59146  97.5379 307.6665 0004372 211.8335 148.2658 15.59585052126243
LEMUR-2-TOMATOKECHUP    
1 60471U 24149D   26157.48792660  .00013894  00000+0  40088-3 0  9998
2 60471  97.3796 239.5103 0000407 213.3848 146.7370 15.35807320100524
LEMUR-2-STELLA          
1 60533U 24149BT  26157.49095815  .00015863  00000+0  93724-3 0  9999
2 60533  97.6731 239.9014 0002012  99.4545 260.6912 15.11579016 98886
LEMUR-2-MARHISYAM       
1 60536U 24149BW  26157.20254433  .00015006  00000+0  90038-3 0  9998
2 60536  97.6874 240.0497 0003094 137.6306 222.5163 15.11031638 98828
LEMUR-2-AHMED-ASRAR     
1 60576U 24149DN  26157.51179319  .00016650  00000+0  95949-3 0  9997
2 60576  97.6998 242.4119 0002654  65.6702 294.4806 15.12470260 98952
LEMUR-2-LLOYD           
1 60577U 24149DP  26157.16827867  .00015599  00000+0  98846-3 0  9997
2 60577  97.6743 238.2933 0004238 169.1953 190.9367 15.09025439 98734
LEMUR-2-SQUIRRELCOMM    
1 60578U 24149DQ  26157.16753246  .00009292  00000+0  62360-3 0  9992
2 60578  97.6706 238.1137 0006815  92.5608 267.6399 15.07028342 98740
LEMUR-2-SIERRINI        
1 60579U 24149DR  26157.48870825  .00015024  00000+0  90906-3 0  9998
2 60579  97.6841 240.0359 0004868 196.4771 163.6301 15.10721259 98840
LEMUR-2-WILSON          
1 62694U 25009CP  26157.18626202  .00002584  00000+0  24074-3 0  9999
2 62694  97.7028 235.8446 0004826  80.8883 279.2883 14.95122096 75717
LEMUR-2-STAR-FOX        
1 62696U 25009CR  26157.50327665  .00011065  00000+0  84057-3 0  9999
2 62696  97.6941 239.1902 0002700 141.1756 218.9664 15.02340714 75956
